[
  {
    "OBJECT_NAME": "STARLINK-1260",
    "OBJECT_ID": "20019AW",
    "EPOCH": "2025-11-11T06:54:18.434304",
    "MEAN_MOTION": 15.06419533,
    "ECCENTRICITY": 0.0001427,
    "INCLINATION": 53.0545,
    "RA_OF_ASC_NODE": 308.1433,
    "ARG_OF_PERICENTER": 89.1403,
    "MEAN_ANOMALY": 270.9749,
    "EPHEMERIS_TYPE": 0,
    "CLASSIFICATION_TYPE": "U",
    "NORAD_CAT_ID": 45404,
    "ELEMENT_SET_NO": 999,
    "REV_AT_EPOCH": 31201,
    "BSTAR": 0.00099709,
    "MEAN_MOTION_DOT": 0.00014609,
    "MEAN_MOTION_DDOT": 0.0,
    "TLE_LINE1": "1 45404U 20019AW  25315.28771336  .00014609  00000+0  99709-3 0  9998",
    "TLE_LINE2": "2 45404  53.0545 308.1433 0001427  89.1403 270.9749 15.06419533312014",
    "COMMENT": "Grouped by shell and plane from TLE"
  },
  {
    "OBJECT_NAME": "STARLINK-1263",
    "OBJECT_ID": "20019AX",
    "EPOCH": "2025-11-11T06:33:03.338784",
    "MEAN_MOTION": 15.06393437,
    "ECCENTRICITY": 0.0001319,
    "INCLINATION": 53.0556,
    "RA_OF_ASC_NODE": 308.2128,
    "ARG_OF_PERICENTER": 92.8741,
    "MEAN_ANOMALY": 267.2399,
    "EPHEMERIS_TYPE": 0,
    "CLASSIFICATION_TYPE": "U",
    "NORAD_CAT_ID": 45405,
    "ELEMENT_SET_NO": 999,
    "REV_AT_EPOCH": 31201,
    "BSTAR": 0.00010455000000000001,
    "MEAN_MOTION_DOT": 1.276e-05,
    "MEAN_MOTION_DDOT": 0.0,
    "TLE_LINE1": "1 45405U 20019AX  25315.27295531  .00001276  00000+0  10455-3 0  9993",
    "TLE_LINE2": "2 45405  53.0556 308.2128 0001319  92.8741 267.2399 15.06393437312019",
    "COMMENT": "Grouped by shell and plane from TLE"
  },
  {
    "OBJECT_NAME": "STARLINK-1265",
    "OBJECT_ID": "20019AY",
    "EPOCH": "2025-11-11T05:08:07.788192",
    "MEAN_MOTION": 15.06402674,
    "ECCENTRICITY": 0.0001358,
    "INCLINATION": 53.0549,
    "RA_OF_ASC_NODE": 308.4778,
    "ARG_OF_PERICENTER": 79.3345,
    "MEAN_ANOMALY": 280.7797,
    "EPHEMERIS_TYPE": 0,
    "CLASSIFICATION_TYPE": "U",
    "NORAD_CAT_ID": 45406,
    "ELEMENT_SET_NO": 999,
    "REV_AT_EPOCH": 31200,
    "BSTAR": 0.00016372999999999998,
    "MEAN_MOTION_DOT": 2.158e-05,
    "MEAN_MOTION_DDOT": 0.0,
    "TLE_LINE1": "1 45406U 20019AY  25315.21397903  .00002158  00000+0  16373-3 0  9999",
    "TLE_LINE2": "2 45406  53.0549 308.4778 0001358  79.3345 280.7797 15.06402674312003",
    "COMMENT": "Grouped by shell and plane from TLE"
  },
  {
    "OBJECT_NAME": "STARLINK-1296",
    "OBJECT_ID": "20019BE",
    "EPOCH": "2025-11-11T05:13:27.802560",
    "MEAN_MOTION": 15.06407749,
    "ECCENTRICITY": 0.0001525,
    "INCLINATION": 53.0548,
    "RA_OF_ASC_NODE": 308.4602,
    "ARG_OF_PERICENTER": 92.002,
    "MEAN_ANOMALY": 268.1144,
    "EPHEMERIS_TYPE": 0,
    "CLASSIFICATION_TYPE": "U",
    "NORAD_CAT_ID": 45412,
    "ELEMENT_SET_NO": 999,
    "REV_AT_EPOCH": 31200,
    "BSTAR": 0.00060668,
    "MEAN_MOTION_DOT": 8.768e-05,
    "MEAN_MOTION_DDOT": 0.0,
    "TLE_LINE1": "1 45412U 20019BE  25315.21768290  .00008768  00000+0  60668-3 0  9996",
    "TLE_LINE2": "2 45412  53.0548 308.4602 0001525  92.0020 268.1144 15.06407749312007",
    "COMMENT": "Grouped by shell and plane from TLE"
  },
  {
    "OBJECT_NAME": "STARLINK-1309",
    "OBJECT_ID": "20019BG",
    "EPOCH": "2025-11-11T07:10:11.465184",
    "MEAN_MOTION": 15.0641588,
    "ECCENTRICITY": 0.0001397,
    "INCLINATION": 53.0547,
    "RA_OF_ASC_NODE": 308.0975,
    "ARG_OF_PERICENTER": 85.5019,
    "MEAN_ANOMALY": 274.613,
    "EPHEMERIS_TYPE": 0,
    "CLASSIFICATION_TYPE": "U",
    "NORAD_CAT_ID": 45414,
    "ELEMENT_SET_NO": 999,
    "REV_AT_EPOCH": 31200,
    "BSTAR": 0.00043846,
    "MEAN_MOTION_DOT": 6.258e-05,
    "MEAN_MOTION_DDOT": 0.0,
    "TLE_LINE1": "1 45414U 20019BG  25315.29874381  .00006258  00000+0  43846-3 0  9996",
    "TLE_LINE2": "2 45414  53.0547 308.0975 0001397  85.5019 274.6130 15.06415880312001",
    "COMMENT": "Grouped by shell and plane from TLE"
  },
  {
    "OBJECT_NAME": "STARLINK-1316",
    "OBJECT_ID": "20019BH",
    "EPOCH": "2025-11-11T06:11:49.349184",
    "MEAN_MOTION": 15.06399046,
    "ECCENTRICITY": 0.0001303,
    "INCLINATION": 53.0553,
    "RA_OF_ASC_NODE": 308.2766,
    "ARG_OF_PERICENTER": 79.505,
    "MEAN_ANOMALY": 280.6086,
    "EPHEMERIS_TYPE": 0,
    "CLASSIFICATION_TYPE": "U",
    "NORAD_CAT_ID": 45415,
    "ELEMENT_SET_NO": 999,
    "REV_AT_EPOCH": 31203,
    "BSTAR": 0.00013744999999999998,
    "MEAN_MOTION_DOT": 1.766e-05,
    "MEAN_MOTION_DDOT": 0.0,
    "TLE_LINE1": "1 45415U 20019BH  25315.25821006  .00001766  00000+0  13745-3 0  9993",
    "TLE_LINE2": "2 45415  53.0553 308.2766 0001303  79.5050 280.6086 15.06399046312039",
    "COMMENT": "Grouped by shell and plane from TLE"
  },
  {
    "OBJECT_NAME": "STARLINK-2107",
    "OBJECT_ID": "21017B",
    "EPOCH": "2025-11-11T05:53:53.185344",
    "MEAN_MOTION": 15.06418778,
    "ECCENTRICITY": 0.0001433,
    "INCLINATION": 53.0554,
    "RA_OF_ASC_NODE": 303.3326,
    "ARG_OF_PERICENTER": 98.124,
    "MEAN_ANOMALY": 261.9912,
    "EPHEMERIS_TYPE": 0,
    "CLASSIFICATION_TYPE": "U",
    "NORAD_CAT_ID": 47723,
    "ELEMENT_SET_NO": 999,
    "REV_AT_EPOCH": 26101,
    "BSTAR": 0.00037882,
    "MEAN_MOTION_DOT": 5.368e-05,
    "MEAN_MOTION_DDOT": 0.0,
    "TLE_LINE1": "1 47723U 21017B   25315.24575446  .00005368  00000+0  37882-3 0  9999",
    "TLE_LINE2": "2 47723  53.0554 303.3326 0001433  98.1240 261.9912 15.06418778261019",
    "COMMENT": "Grouped by shell and plane from TLE"
  },
  {
    "OBJECT_NAME": "STARLINK-2063",
    "OBJECT_ID": "21041A",
    "EPOCH": "2025-11-11T05:59:14.354016",
    "MEAN_MOTION": 15.06375827,
    "ECCENTRICITY": 0.0001443,
    "INCLINATION": 53.0557,
    "RA_OF_ASC_NODE": 303.3191,
    "ARG_OF_PERICENTER": 98.2441,
    "MEAN_ANOMALY": 261.8711,
    "EPHEMERIS_TYPE": 0,
    "CLASSIFICATION_TYPE": "U",
    "NORAD_CAT_ID": 48553,
    "ELEMENT_SET_NO": 999,
    "REV_AT_EPOCH": 24735,
    "BSTAR": 0.0,
    "MEAN_MOTION_DOT": -6.04e-05,
    "MEAN_MOTION_DDOT": 0.0,
    "TLE_LINE1": "1 48553U 21041A   25315.24947169 -.00006040  00000+0 -38717-3 0  9991",
    "TLE_LINE2": "2 48553  53.0557 303.3191 0001443  98.2441 261.8711 15.06375827247353",
    "COMMENT": "Grouped by shell and plane from TLE"
  },
  {
    "OBJECT_NAME": "STARLINK-2139",
    "OBJECT_ID": "21041B",
    "EPOCH": "2025-11-11T06:52:21.446976",
    "MEAN_MOTION": 15.06392933,
    "ECCENTRICITY": 0.0001682,
    "INCLINATION": 53.0566,
    "RA_OF_ASC_NODE": 303.4589,
    "ARG_OF_PERICENTER": 92.5197,
    "MEAN_ANOMALY": 267.5984,
    "EPHEMERIS_TYPE": 0,
    "CLASSIFICATION_TYPE": "U",
    "NORAD_CAT_ID": 48554,
    "ELEMENT_SET_NO": 999,
    "REV_AT_EPOCH": 24735,
    "BSTAR": 0.00010313999999999999,
    "MEAN_MOTION_DOT": 1.255e-05,
    "MEAN_MOTION_DDOT": 0.0,
    "TLE_LINE1": "1 48554U 21041B   25315.28635934  .00001255  00000+0  10314-3 0  9994",
    "TLE_LINE2": "2 48554  53.0566 303.4589 0001682  92.5197 267.5984 15.06392933247358",
    "COMMENT": "Grouped by shell and plane from TLE"
  },
  {
    "OBJECT_NAME": "STARLINK-2155",
    "OBJECT_ID": "21041E",
    "EPOCH": "2025-11-11T06:41:40.975872",
    "MEAN_MOTION": 15.06399263,
    "ECCENTRICITY": 0.0001231,
    "INCLINATION": 53.0537,
    "RA_OF_ASC_NODE": 303.1831,
    "ARG_OF_PERICENTER": 83.0435,
    "MEAN_ANOMALY": 277.0694,
    "EPHEMERIS_TYPE": 0,
    "CLASSIFICATION_TYPE": "U",
    "NORAD_CAT_ID": 48557,
    "ELEMENT_SET_NO": 999,
    "REV_AT_EPOCH": 24735,
    "BSTAR": 0.0001733,
    "MEAN_MOTION_DOT": 2.301e-05,
    "MEAN_MOTION_DDOT": 0.0,
    "TLE_LINE1": "1 48557U 21041E   25315.27894648  .00002301  00000+0  17330-3 0  9993",
    "TLE_LINE2": "2 48557  53.0537 303.1831 0001231  83.0435 277.0694 15.06399263247353",
    "COMMENT": "Grouped by shell and plane from TLE"
  },
  {
    "OBJECT_NAME": "STARLINK-2166",
    "OBJECT_ID": "21041F",
    "EPOCH": "2025-11-11T06:36:21.971520",
    "MEAN_MOTION": 15.0639853,
    "ECCENTRICITY": 0.0001321,
    "INCLINATION": 53.0552,
    "RA_OF_ASC_NODE": 303.2001,
    "ARG_OF_PERICENTER": 90.8339,
    "MEAN_ANOMALY": 269.2801,
    "EPHEMERIS_TYPE": 0,
    "CLASSIFICATION_TYPE": "U",
    "NORAD_CAT_ID": 48558,
    "ELEMENT_SET_NO": 999,
    "REV_AT_EPOCH": 24649,
    "BSTAR": 4.8371e-07,
    "MEAN_MOTION_DOT": -2.74e-06,
    "MEAN_MOTION_DDOT": 0.0,
    "TLE_LINE1": "1 48558U 21041F   25315.27525430 -.00000274  00000+0  48371-6 0  9994",
    "TLE_LINE2": "2 48558  53.0552 303.2001 0001321  90.8339 269.2801 15.06398530246493",
    "COMMENT": "Grouped by shell and plane from TLE"
  },
  {
    "OBJECT_NAME": "STARLINK-2187",
    "OBJECT_ID": "21041K",
    "EPOCH": "2025-11-11T06:04:31.579392",
    "MEAN_MOTION": 15.06398265,
    "ECCENTRICITY": 0.000135,
    "INCLINATION": 53.0539,
    "RA_OF_ASC_NODE": 303.3018,
    "ARG_OF_PERICENTER": 92.451,
    "MEAN_ANOMALY": 267.6634,
    "EPHEMERIS_TYPE": 0,
    "CLASSIFICATION_TYPE": "U",
    "NORAD_CAT_ID": 48562,
    "ELEMENT_SET_NO": 999,
    "REV_AT_EPOCH": 24735,
    "BSTAR": 0.00012884000000000002,
    "MEAN_MOTION_DOT": 1.638e-05,
    "MEAN_MOTION_DDOT": 0.0,
    "TLE_LINE1": "1 48562U 21041K   25315.25314328  .00001638  00000+0  12884-3 0  9990",
    "TLE_LINE2": "2 48562  53.0539 303.3018 0001350  92.4510 267.6634 15.06398265247350",
    "COMMENT": "Grouped by shell and plane from TLE"
  },
  {
    "OBJECT_NAME": "STARLINK-2188",
    "OBJECT_ID": "21041L",
    "EPOCH": "2025-11-11T06:31:03.600480",
    "MEAN_MOTION": 15.06396882,
    "ECCENTRICITY": 0.0001344,
    "INCLINATION": 53.0546,
    "RA_OF_ASC_NODE": 303.2165,
    "ARG_OF_PERICENTER": 88.5424,
    "MEAN_ANOMALY": 271.5719,
    "EPHEMERIS_TYPE": 0,
    "CLASSIFICATION_TYPE": "U",
    "NORAD_CAT_ID": 48563,
    "ELEMENT_SET_NO": 999,
    "REV_AT_EPOCH": 24735,
    "BSTAR": 8.7823e-05,
    "MEAN_MOTION_DOT": 1.027e-05,
    "MEAN_MOTION_DDOT": 0.0,
    "TLE_LINE1": "1 48563U 21041L   25315.27156945  .00001027  00000+0  87823-4 0  9990",
    "TLE_LINE2": "2 48563  53.0546 303.2165 0001344  88.5424 271.5719 15.06396882247355",
    "COMMENT": "Grouped by shell and plane from TLE"
  }
]